GLOBALSTAR M024         
1 25883U 99043A   24233.46769133 -.00000012  00000+0  18887-2 0  9991
2 25883  52.0065 339.1494 0000872 344.4181  95.4915 11.10162637 81461
GLOBALSTAR M027         
1 25884U 99043B   24233.45135706 -.00000039  00000+0  94201-3 0  9998
2 25884  52.0225  48.6436 0020620 224.3699 135.5442 11.04369263108010
GLOBALSTAR M054         
1 25885U 99043C   24234.32067362 -.00000071  00000+0  73085-5 0  9993
2 25885  52.0100 224.3308 0005309  23.1872  84.4121 11.39212180 85203
GLOBALSTAR M053         
1 25886U 99043D   24234.21849477 -.00000052  00000+0  47182-3 0  9993
2 25886  51.9968 155.0278 0003548 302.8903 205.8209 11.27657733 85744
GLOBALSTAR M058         
1 25907U 99049A   24234.15767516 -.00000071  00000+0  17880-3 0  9992
2 25907  51.9917 190.3223 0002389  54.4214 305.6843 11.93180627116936
GLOBALSTAR M050         
1 25908U 99049B   24234.30863769 -.00000068  00000+0  23276-3 0  9999
2 25908  51.9963 219.9997 0008963 154.0602 315.8220 12.07438958116690
GLOBALSTAR M033         
1 25909U 99049C   24233.82338121 -.00000095  00000+0 -33796-4 0  9995
2 25909  51.9906 113.9134 0013142  10.8213 349.2915 12.20275893131798
GLOBALSTAR M055         
1 25910U 99049D   24233.76805168 -.00000056  00000+0  32891-3 0  9990
2 25910  52.0010 139.4360 0006457 228.2254 131.8046 12.29406660131554
